BEIDOU 3 (C01)          
1 36287U 10001A   22322.86852486 -.00000263  00000+0  00000+0 0  9996
2 36287   1.7821  49.3980 0001653 253.0887 208.4218  1.00266787 47067
BEIDOU 5 (C06)          
1 36828U 10036A   22323.92828491 -.00000029  00000+0  00000+0 0  9992
2 36828  54.1972 174.8090 0030308 182.9879 140.8431  1.00253664 45135
BEIDOU 6 (C04)          
1 37210U 10057A   22323.86698368 -.00000091  00000+0  00000+0 0  9991
2 37210   0.8267  45.1164 0007182 164.2899 321.6255  1.00271845 44196
BEIDOU 7 (C07)          
1 37256U 10068A   22323.86507669 -.00000204  00000+0  00000+0 0  9992
2 37256  49.9382 287.7839 0022681 207.6013 341.4287  1.00257688 43702
BEIDOU 8 (C08)          
1 37384U 11013A   22323.70296236 -.00000197  00000+0  00000+0 0  9994
2 37384  60.5169  52.7306 0024624 182.4091 184.4147  1.00266578 42583
BEIDOU 9 (C09)          
1 37763U 11038A   22323.58452346  .00000062  00000+0  00000+0 0  9994
2 37763  54.4775 177.3137 0100709 227.6204 317.0422  1.00290836 41552
BEIDOU 10 (C10)         
1 37948U 11073A   22323.84632105 -.00000153  00000+0  00000+0 0  9992
2 37948  50.0583 287.4324 0086060 220.8345 309.3377  1.00258908 40311
BEIDOU 11 (C05)         
1 38091U 12008A   22323.91661179  .00000077  00000+0  00000+0 0  9996
2 38091   1.9141  70.5299 0008640 323.1209  53.9795  1.00274563 39399
BEIDOU 12 (C11)         
1 38250U 12018A   22323.34331520 -.00000056  00000+0  00000+0 0  9993
2 38250  56.6434 348.4432 0024826 253.8935 123.6410  1.86234334 71978
BEIDOU 13 (C12)         
1 38251U 12018B   22322.33790021 -.00000060  00000+0  00000+0 0  9992
2 38251  56.5585 347.7900 0015755 255.0129 212.5574  1.86234113 71959
BEIDOU 15 (C14)         
1 38775U 12050B   22323.48877194  .00000061  00000+0  00000+0 0  9993
2 38775  55.4953 106.4690 0010879 332.6651  22.1703  1.86231222 69344
BEIDOU 16 (C02)         
1 38953U 12059A   22323.92166737 -.00000155  00000+0  00000+0 0  9998
2 38953   1.3065  81.6549 0024269 291.9269 101.2149  1.00271470 36963
BEIDOU 17 (C31)         
1 40549U 15019A   22322.82084148 -.00000153  00000+0  00000+0 0  9992
2 40549  51.6193 310.9574 0038067 200.3006 296.7686  1.00263529 27981
BEIDOU 18 (C57)         
1 40748U 15037A   22323.40278157 -.00000057  00000+0  00000+0 0  9996
2 40748  55.8070 346.5259 0002572 322.0051  48.7786  1.86233612 49806
BEIDOU 19 (C58)         
1 40749U 15037B   22322.30941315 -.00000061  00000+0  00000+0 0  9993
2 40749  55.8117 346.5539 0005223 294.7777 197.0586  1.86232879 49772
BEIDOU 20 (C18)         
1 40938U 15053A   22323.80205606 -.00000145  00000+0  00000+0 0  9996
2 40938  51.2642 274.0859 0044775 200.0270 327.7491  1.00257772 26269
BEIDOU IGSO-6 (C13)     
1 41434U 16021A   22323.79506032 -.00000160  00000+0  00000+0 0  9996
2 41434  58.3279  51.2346 0049242 219.9965 166.7870  1.00295368 24392
BEIDOU-2 G7 (C03)       
1 41586U 16037A   22323.81640168 -.00000333  00000+0  00000+0 0  9995
2 41586   1.7213  69.2210 0007906 351.5878  42.4488  1.00276204 23703
BEIDOU-3 M1 (C19)       
1 43001U 17069A   22323.19985207  .00000062  00000+0  00000+0 0  9990
2 43001  55.6481 106.4998 0007296 289.3501  28.1785  1.86231516 34278
BEIDOU-3 M2 (C20)       
1 43002U 17069B   22322.59700179  .00000064  00000+0  00000+0 0  9999
2 43002  55.6474 106.5554 0005401 322.7058 353.4561  1.86231218 34258
BEIDOU-3 M3 (C27)       
1 43107U 18003A   22323.77230241 -.00000058  00000+0  00000+0 0  9997
2 43107  55.2604 347.3641 0002971  54.0217 136.4894  1.86232360 33041
BEIDOU-3 M4 (C28)       
1 43108U 18003B   22323.48944389 -.00000059  00000+0  00000+0 0  9992
2 43108  55.2526 347.3597 0004400 248.6325 155.2548  1.86230821 33040
BEIDOU-3 M5 (C21)       
1 43207U 18018A   22323.86794297  .00000060  00000+0  00000+0 0  9992
2 43207  55.6071 106.5861 0003639   8.5718 351.4201  1.86231466 32434
BEIDOU-3 M6 (C22)       
1 43208U 18018B   22322.86073072  .00000063  00000+0  00000+0 0  9996
2 43208  55.6063 106.6241 0005009 306.1609  53.7860  1.86231515 32414
BEIDOU-3 M7 (C29)       
1 43245U 18029A   22323.79546176 -.00000056  00000+0  00000+0 0  9995
2 43245  55.1661 345.1167 0001602 263.4160 213.1982  1.86233092 31589
BEIDOU-3 M8 (C30)       
1 43246U 18029B   22322.66777649 -.00000059  00000+0  10000-3 0  9990
2 43246  55.1645 345.1867 0003788 337.7679 149.4404  1.86233166 31555
BEIDOU IGSO-7 (C16)     
1 43539U 18057A   22323.81295363 -.00000042  00000+0  00000+0 0  9999
2 43539  55.0886 174.3567 0051186 225.8705  65.1175  1.00262872 16067
BEIDOU-3 M9 (C23)       
1 43581U 18062A   22323.50852639  .00000010  00000+0  00000+0 0  9997
2 43581  54.2362 226.7807 0003885 298.6878 243.6223  1.86231950 29311
BEIDOU-3 M10 (C24)      
1 43582U 18062B   22323.22249934  .00000007  00000+0  00000+0 0  9991
2 43582  54.2345 226.7798 0006278  10.6437  71.8999  1.86232577 29311
BEIDOU-3 M11 (C25)      
1 43602U 18067A   22322.77254888  .00000005  00000+0  00000+0 0  9990
2 43602  54.3194 225.4239 0007673  12.3895 169.4715  1.86231480 28793
BEIDOU-3 M12 (C26)      
1 43603U 18067B   22323.44114788  .00000012  00000+0  00000+0 0  9998
2 43603  54.3159 225.3675 0004704   2.8849 177.5884  1.86231424 28822
BEIDOU-3 M13 (C32)      
1 43622U 18072A   22323.61259851  .00000060  00000+0  00000+0 0  9998
2 43622  55.5750 106.1441 0004189 279.1144  45.1707  1.86231481 28337
BEIDOU-3 M14 (C33)      
1 43623U 18072B   22322.91802336  .00000062  00000+0  00000+0 0  9995
2 43623  55.5763 106.1599 0002074 330.4249 338.4231  1.86231501 28326
BEIDOU-3 M15 (C34)      
1 43647U 18078A   22320.54058966 -.00000070  00000+0  10000-3 0  9991
2 43647  55.0614 345.3758 0005715 351.9352  58.7295  1.86233030 27795
BEIDOU-3 M16 (C35)      
1 43648U 18078B   22323.34769714 -.00000058  00000+0  00000+0 0  9994
2 43648  55.0582 345.2855 0003461 358.5651  41.6129  1.86232194 27863
BEIDOU-3 G1 (C59)       
1 43683U 18085A   22323.78932333 -.00000256  00000+0  00000+0 0  9998
2 43683   1.0898 143.6319 0004477  62.9503 276.4523  1.00272911 14968
BEIDOU-3 M17 (C36)      
1 43706U 18093A   22323.43808334  .00000010  00000+0  00000+0 0  9995
2 43706  54.3170 226.6803 0008674 286.8588  73.1000  1.86231967 27226
BEIDOU-3 M18 (C37)      
1 43707U 18093B   22323.49496818  .00000011  00000+0  00000+0 0  9993
2 43707  54.3182 226.6682 0008036 314.3710 175.0936  1.86232304 27216
BEIDOU-3 IGSO-1 (C38)   
1 44204U 19023A   22323.84322017 -.00000227  00000+0  00000+0 0  9998
2 44204  56.7878  51.3152 0024274 194.2045 235.5882  1.00263179 13273
BEIDOU-2 G8             
1 44231U 19027A   22323.86193174 -.00000227  00000+0  00000+0 0  9994
2 44231   1.2358  79.8044 0006451 133.1849 300.6505  1.00267636 12982
BEIDOU-3 IGSO-2 (C39)   
1 44337U 19035A   22323.82931972 -.00000039  00000+0  00000+0 0  9993
2 44337  55.1270 170.3428 0025706 188.4062 116.7038  1.00256452 12607
BEIDOU-3 M23 (C45)      
1 44542U 19061A   22323.37451389  .00000009  00000+0  00000+0 0  9995
2 44542  54.5436 226.8548 0008949 349.5240  10.5107  1.86231525 21471
BEIDOU-3 M24 (C46)      
1 44543U 19061B   22323.24084281  .00000008  00000+0  00000+0 0  9994
2 44543  54.5429 226.8284 0005980 336.7734 205.1436  1.86231934 21469
BEIDOU-3 IGSO-3         
1 44709U 19073A   22323.83367272 -.00000185  00000+0  10000-3 0  9992
2 44709  57.0132 294.7669 0026774 183.3798 359.8303  1.00261676 11352
BEIDOU-3 M21            
1 44793U 19078A   22322.15743249 -.00000062  00000+0  10000-3 0  9990
2 44793  54.9111 345.3237 0005333   0.5185   7.8095  1.86232155 20318
BEIDOU-3 M22            
1 44794U 19078B   22323.35213104 -.00000058  00000+0  00000+0 0  9996
2 44794  54.8849 345.2709 0003524 349.8925  11.3600  1.86232677 20333
BEIDOU-3 M19            
1 44864U 19090A   22323.55301906  .00000060  00000+0  00000+0 0  9990
2 44864  55.5094 106.3490 0015210 267.0929  63.1726  1.86231999 19916
BEIDOU-3 M20            
1 44865U 19090B   22322.38735469  .00000063  00000+0  00000+0 0  9999
2 44865  55.5104 106.4201 0012920 282.6911  75.8880  1.86231722 19868
BEIDOU-3 G2             
1 45344U 20017A   22323.82730245 -.00000125  00000+0  00000+0 0  9990
2 45344   2.0008   0.2017 0002512 192.1494 244.3712  1.00270802 10174
BEIDOU-3 G3             
1 45807U 20040A   22323.81640181 -.00000335  00000+0  00000+0 0  9991
2 45807   1.1036 309.3581 0008624 339.8669 173.9995  1.00277540  8984
